      2.00          N: GPS NAV DATA                         RINEX VERSION / TYPE
scanBrdcFile                            05/23/2017 14:07:17 PGM / RUN BY / DATE
IGS BROADCAST EPHEMERIS FILE                                COMMENT
    1.1180e-08 -7.4510e-09 -5.9600e-08  1.1920e-07          ION ALPHA
    1.1670e+05 -2.2940e+05 -1.3110e+05  1.0490e+06          ION BETA
   -9.313225746150e-10-3.552713678800e-15   147456     1879 DELTA-UTC: A0,A1,T,W
    17                                                      LEAP SECONDS
                                                            END OF HEADER
12 16  1  8 18  0  0.0 3.594853915270e-04 2.842170943040e-12 0.000000000000e+00
    4.000000000000e+01 4.843750000000e+00 4.192317604180e-09-9.372928524780e-01
    2.663582563400e-07 5.691002006640e-03 5.308538675310e-07 5.153546289440e+03
    4.968000000000e+05 1.005828380590e-07-1.705934427430e+00 2.421438694000e-08
    9.900100022330e-01 3.844375000000e+02 6.413110095890e-01-8.272130536110e-09
   -2.785830247040e-11 1.000000000000e+00 1.878000000000e+03 0.000000000000e+00
    2.000000000000e+00 0.000000000000e+00-1.257285475730e-08 4.000000000000e+01
    4.896000000000e+05 4.000000000000e+00
27 16  1  8 18  0  0.0 5.161575973030e-05 3.410605131650e-12 0.000000000000e+00
    6.000000000000e+00-1.453437500000e+02 4.114814255670e-09 2.296968007450e+00
   -7.476657629010e-06 2.984984661450e-03 6.619840860370e-06 5.153637594220e+03
    4.968000000000e+05-1.862645149230e-09-7.124023899390e-01 3.725290298460e-09
    9.699587130740e-01 2.558125000000e+02 2.211309342370e-01-7.989618513970e-09
   -2.189376910620e-10 1.000000000000e+00 1.878000000000e+03 0.000000000000e+00
    2.000000000000e+00 0.000000000000e+00 1.862645149230e-09 6.000000000000e+00
    4.896000000000e+05 4.000000000000e+00
 3 16  1  8 19 59 44.0-8.916947990660e-06-5.115907697470e-12 0.000000000000e+00
    3.100000000000e+01 7.875000000000e+00 5.130928009460e-09-2.252610855200e+00
    4.004687070850e-07 3.317948430780e-04 5.146488547320e-06 5.153779085160e+03
    5.039840000000e+05 1.490116119380e-08 1.385692215280e+00-5.587935447690e-09
    9.587490125900e-01 2.828125000000e+02 2.871632151510e+00-8.214270728780e-09
    2.046513816940e-10 1.000000000000e+00 1.878000000000e+03 0.000000000000e+00
    2.000000000000e+00 0.000000000000e+00 1.862645149230e-09 3.100000000000e+01
    4.968000000000e+05 4.000000000000e+00
12 16  1  8 20  0  0.0 3.595054149630e-04 2.842170943040e-12 0.000000000000e+00
    4.800000000000e+01 1.193750000000e+01 4.195888969610e-09 1.129378916080e-01
    6.128102540970e-07 5.691670230590e-03 4.265457391740e-07 5.153547348020e+03
    5.040000000000e+05 4.842877388000e-08-1.705994067670e+00 7.636845111850e-08
    9.900096818540e-01 3.852812500000e+02 6.413369632190e-01-8.287845076890e-09
   -4.214461418740e-11 1.000000000000e+00 1.878000000000e+03 0.000000000000e+00
    2.000000000000e+00 0.000000000000e+00-1.257285475730e-08 4.800000000000e+01
    4.968000000000e+05 4.000000000000e+00
27 16  1  8 20  0  0.0 5.164043977860e-05 3.410605131650e-12 0.000000000000e+00
    8.000000000000e+00-1.484062500000e+02 4.119814463950e-09-2.935962740800e+00
   -7.564201951030e-06 2.986622392200e-03 7.361173629760e-06 5.153634582520e+03
    5.040000000000e+05 2.048909664150e-08-7.124598518980e-01-9.313225746160e-09
    9.699572457670e-01 2.434062500000e+02 2.210768896540e-01-7.967831892180e-09
   -2.157232714540e-10 1.000000000000e+00 1.878000000000e+03 0.000000000000e+00
    2.000000000000e+00 0.000000000000e+00 1.862645149230e-09 8.000000000000e+00
    4.968000000000e+05 4.000000000000e+00
 3 16  1  8 22  0  0.0-8.953735232350e-06-5.115907697470e-12 0.000000000000e+00
    3.800000000000e+01 7.625000000000e+00 5.053424781140e-09-1.200175436510e+00
    1.695007085800e-07 3.318208036940e-04 4.926696419720e-06 5.153779062270e+03
    5.112000000000e+05 2.048909664150e-08 1.385632908580e+00 3.725290298460e-09
    9.587505003780e-01 2.825625000000e+02 2.871651027540e+00-8.215699359710e-09
    2.110802209100e-10 1.000000000000e+00 1.878000000000e+03 0.000000000000e+00
    2.000000000000e+00 0.000000000000e+00 1.862645149230e-09 3.800000000000e+01
    5.040000000000e+05 4.000000000000e+00
12 16  1  8 22  0  0.0 3.595254383980e-04 2.842170943040e-12 0.000000000000e+00
    4.900000000000e+01 2.250000000000e+01 4.137315379180e-09 1.163090823080e+00
    1.121312379840e-06 5.693093407900e-03 7.320195436480e-07 5.153550176620e+03
    5.112000000000e+05-1.303851604460e-08-1.706053487020e+00 9.126961231230e-08
    9.900092795520e-01 3.795625000000e+02 6.414381532620e-01-8.264629869360e-09
   -6.500270460780e-11 1.000000000000e+00 1.878000000000e+03 0.000000000000e+00
    2.000000000000e+00 0.000000000000e+00-1.257285475730e-08 4.900000000000e+01
    5.040000000000e+05 4.000000000000e+00
27 16  1  8 22  0  0.0 5.166511982680e-05 3.410605131650e-12 0.000000000000e+00
    1.300000000000e+01-1.429375000000e+02 4.050168705780e-09-1.885497429510e+00
   -7.355585694310e-06 2.986075356600e-03 7.595866918560e-06 5.153636320110e+03
    5.112000000000e+05-5.587935447690e-08-7.125167638000e-01 9.313225746160e-09
    9.699556526490e-01 2.380000000000e+02 2.208128665880e-01-7.925687279550e-09
   -2.650110387730e-10 1.000000000000e+00 1.878000000000e+03 0.000000000000e+00
    2.000000000000e+00 0.000000000000e+00 1.862645149230e-09 1.300000000000e+01
    5.040000000000e+05 4.000000000000e+00
